ONEWEB-0144             
1 47290U 20100AJ  25028.44797910  .00000127  00000+0  31631-3 0  9999
2 47290  87.8847  91.1415 0002196  98.2813 261.8565 13.12445157198369
ONEWEB-0145             
1 47291U 20100AK  25028.41877814 -.00000310  00000+0 -89803-3 0  9999
2 47291  87.8848  91.1722 0001979 101.9078 258.2272 13.12440061198550
ONEWEB-0146             
1 47292U 20100AL  25028.41553960 -.00000214  00000+0 -63010-3 0  9998
2 47292  87.8850  91.1584 0001523 109.6321 250.4972 13.12442247198460
ONEWEB-0147             
1 47293U 20100AM  25029.44880174  .00000292  00000+0  77529-3 0  9997
2 47293  87.8843  90.9375 0002157 106.2279 253.9087 13.12443571198496
ONEWEB-0115             
1 48042U 21025A   25029.10825490 -.00000294  00000+0 -84005-3 0  9991
2 48042  87.8874  60.4503 0001796  95.7755 264.3579 13.13470681187434
ONEWEB-0152             
1 48043U 21025B   25029.12095804 -.00000113  00000+0 -34348-3 0  9997
2 48043  87.8880  60.4547 0001843  98.8337 261.3000 13.13470581187393
ONEWEB-0153             
1 48044U 21025C   25029.09872856 -.00000174  00000+0 -51037-3 0  9995
2 48044  87.8884  60.4525 0001896  94.9559 265.1787 13.13469507187384
ONEWEB-0154             
1 48045U 21025D   25029.09556770 -.00000048  00000+0 -16718-3 0  9997
2 48045  87.8879  60.4574 0001847  97.7347 262.3992 13.13469460187346
